NIMIQ 2                 
1 27632U 02062A   26065.98781493 -.00000070  00000+0  00000+0 0  9994
2 27632   9.2100  57.9543 0006540 293.2810  59.8854  1.00272969 43155
ANIK F2                 
1 28378U 04027A   26066.13516814 -.00000052  00000+0  00000+0 0  9996
2 28378   3.0213  80.8100 0003200 299.4834  82.0964  1.00272090 40240
ANIK F1R                
1 28868U 05036A   26065.56032899 -.00000078  00000+0  00000+0 0  9991
2 28868   4.0502  77.8643 0003088 305.7259 235.1157  1.00272466 45427
ANIK F3                 
1 31102U 07009A   26066.14072602 -.00000003  00000+0  00000+0 0  9997
2 31102   0.9335  85.1740 0002776 259.5024 112.1262  1.00271108 45546
NIMIQ 4                 
1 33373U 08044A   26066.13584226 -.00000222  00000+0  00000+0 0  9991
2 33373   0.0012 174.9595 0002122 188.7260 128.0373  1.00270676 63960
TELSTAR 11N             
1 34111U 09009A   26065.50278979 -.00000255  00000+0  00000+0 0  9995
2 34111   0.0188 144.0631 0002325 198.3425 325.2543  1.00273419 45215
TERRESTAR-1             
1 35496U 09035A   26066.06642106 -.00000058  00000+0  00000+0 0  9991
2 35496   5.0967  48.8304 0002875 306.1960  82.6714  1.00273518 61114
NIMIQ 5                 
1 35873U 09050A   26066.11294596 -.00000259  00000+0  00000+0 0  9992
2 35873   0.0460 267.8974 0002652  84.6276 140.2468  1.00272420 60323
SKYTERRA 1              
1 37218U 10061A   26066.04836604 -.00000119  00000+0  00000+0 0  9990
2 37218   4.9077  50.9108 0001550 305.6696  84.2607  1.00272943 56173
TELSTAR 14R             
1 37602U 11021A   26065.99700164 -.00000283  00000+0  00000+0 0  9990
2 37602   0.0220 247.0435 0002393 107.8988 105.6839  1.00272426 54811
NIMIQ 6                 
1 38342U 12026A   26065.34956243 -.00000178  00000+0  00000+0 0  9991
2 38342   0.0509 279.5517 0002588  64.8171 214.4242  1.00270837 49383
ANIK G1                 
1 39127U 13014A   26066.13516814 -.00000076  00000+0  00000+0 0  9992
2 39127   0.0482 268.0592 0002911  59.4559 138.6740  1.00272088 47233
TELSTAR 12V             
1 41036U 15068A   26066.00644834 -.00000121  00000+0  00000+0 0  9996
2 41036   0.0173 196.4798 0002615 149.9483 165.6114  1.00272618 37600
VIASAT-2                
1 42740U 17029A   26066.11294596 -.00000268  00000+0  00000+0 0  9998
2 42740   0.0246 251.1362 0000687 134.2515 110.1896  1.00270555 32188
LEO 1 (LEO VANTAGE 1)   
1 43113U 18004C   26066.18308349  .00005341  00000+0  37085-3 0  9999
2 43113  99.2481 331.1777 0353165  32.5762 329.6702 14.67152946422523
TELSTAR 19V             
1 43562U 18059A   26066.11266818 -.00000282  00000+0  00000+0 0  9997
2 43562   0.0210 157.4695 0000912 274.2236  70.6731  1.00271480 28120
TELSTAR 18V             
1 43611U 18069A   26065.97128064 -.00000297  00000+0  00000+0 0  9992
2 43611   0.0167 202.1119 0002107 146.7132 303.5028  1.00270292 27600
AMOS-17                 
1 44479U 19050A   26066.01286171  .00000106  00000+0  00000+0 0  9994
2 44479   0.0421 291.0202 0001429  59.3039 195.9977  1.00272530 24168
